      2.10          N: GNSS NAV DATA                        RINEX VERSION / TYPE
fic2rin                                 03/15/2020 02:46:20 PGM / RUN BY / DATE
                                                            END OF HEADER
16 20  3 15  0  0  0.0-1.350906677544e-04-4.320099833421e-12 0.000000000000e+00
    1.360000000000e+02 5.834375000000e+01 4.363038880939e-09-2.049241746253e+00
    2.684071660042e-06 1.151938922703e-02 3.993511199951e-06 5.153729738235e+03
    0.000000000000e+00 1.229345798492e-07 2.316231379168e+00-1.452863216400e-07
    9.793432242963e-01 3.098125000000e+02 6.120496036713e-01-8.132481607645e-09
    2.735828243942e-10 1.000000000000e+00 2.097000000000e+03 0.000000000000e+00
    3.400000000000e+00 0.000000000000e+00-1.071020960808e-08 1.360000000000e+02
   -7.200000000000e+03 4.000000000000e+00
27 20  3 15  0  0  0.0-2.386122941971e-04-1.080024958355e-11 0.000000000000e+00
    8.700000000000e+01-6.656250000000e+01 4.301250592923e-09-2.947332717129e+00
   -3.483146429062e-06 8.048628224060e-03 5.526468157768e-06 5.153662485123e+03
    0.000000000000e+00-5.774199962616e-08-3.010050840082e+00-1.341104507446e-07
    9.785778343347e-01 2.834375000000e+02 5.198472650624e-01-8.055692694793e-09
   -1.685784505406e-10 1.000000000000e+00 2.097000000000e+03 0.000000000000e+00
    2.400000000000e+00 0.000000000000e+00 1.396983861923e-09 8.700000000000e+01
   -7.200000000000e+03 4.000000000000e+00
24 20  3 15  0  0  0.0-1.035816967487e-05-5.684341886081e-13 0.000000000000e+00
    1.110000000000e+02 6.631250000000e+01 4.960206612515e-09 1.387929766034e+00
    3.391876816750e-06 9.583902196027e-03 9.691342711449e-06 5.153663415909e+03
    0.000000000000e+00-8.754432201385e-08 1.120959534338e+00 1.043081283569e-07
    9.367456070088e-01 1.796562500000e+02 6.636276405607e-01-8.313917736616e-09
   -1.321483616526e-10 1.000000000000e+00 2.097000000000e+03 0.000000000000e+00
    3.400000000000e+00 0.000000000000e+00 2.793967723846e-09 1.110000000000e+02
   -7.200000000000e+03 4.000000000000e+00
25 20  3 15  0  0  0.0-9.001232683659e-06 1.932676241267e-12 0.000000000000e+00
    9.400000000000e+01 6.334375000000e+01 4.729482716225e-09-4.876581051003e-01
    3.479421138763e-06 9.220976266079e-03 4.192814230919e-06 5.153578603745e+03
    0.000000000000e+00 8.195638656616e-08 2.229344562178e+00 1.080334186554e-07
    9.663790885851e-01 3.063437500000e+02 9.084643445007e-01-8.470709981929e-09
    1.542921411727e-10 1.000000000000e+00 2.097000000000e+03 0.000000000000e+00
    3.400000000000e+00 0.000000000000e+00 5.587935447693e-09 9.400000000000e+01
   -7.200000000000e+03 4.000000000000e+00
17 20  3 15  0  0  0.0 2.321302890778e-04 6.252776074689e-12 0.000000000000e+00
    8.700000000000e+01-6.046875000000e+01 4.083741532798e-09-3.035041196688e+00
   -2.991408109665e-06 1.329506747425e-02 5.662441253662e-06 5.153671123505e+03
    0.000000000000e+00 3.054738044739e-07-2.952150810028e+00-2.607703208923e-08
    9.843766221632e-01 2.795000000000e+02-1.646896403640e+00-7.809253858197e-09
   -1.392915163365e-10 1.000000000000e+00 2.097000000000e+03 0.000000000000e+00
    2.400000000000e+00 0.000000000000e+00-1.117587089539e-08 8.700000000000e+01
   -7.200000000000e+03 4.000000000000e+00
26 20  3 15  0  0  0.0 1.676538959146e-04 7.617018127348e-12 0.000000000000e+00
    7.400000000000e+01 7.609375000000e+01 5.059496462622e-09-1.150157511054e+00
    3.799796104431e-06 4.724068916403e-03 3.969296813011e-06 5.153583131790e+03
    0.000000000000e+00 5.960464477539e-08 2.195403316435e+00-1.024454832077e-07
    9.474830277969e-01 2.918750000000e+02 2.080593193972e-01-8.559642257743e-09
    2.050085394286e-10 1.000000000000e+00 2.097000000000e+03 0.000000000000e+00
    2.400000000000e+00 0.000000000000e+00 7.450580596924e-09 7.400000000000e+01
   -7.200000000000e+03 4.000000000000e+00
20 20  3 15  0  0  0.0 5.278713069856e-04 0.000000000000e+00 0.000000000000e+00
    1.090000000000e+02-6.500000000000e+00 5.402725045184e-09 6.470964541418e-01
   -5.792826414108e-07 5.036035319790e-03 6.938353180885e-06 5.153625923157e+03
    0.000000000000e+00 1.005828380585e-07-1.044977662737e+00-1.862645149231e-08
    9.331434974694e-01 2.305937500000e+02 2.622572874973e+00-8.543213001970e-09
    2.035799084918e-10 1.000000000000e+00 2.097000000000e+03 0.000000000000e+00
    2.400000000000e+00 0.000000000000e+00-8.847564458847e-09 1.090000000000e+02
   -7.200000000000e+03 4.000000000000e+00
28 20  3 15  0  0  0.0 7.328325882554e-04-2.842170943040e-12 0.000000000000e+00
    5.900000000000e+01 5.321875000000e+01 4.184460013841e-09-2.229202082735e+00
    3.065913915634e-06 1.855578925461e-02 4.082918167114e-06 5.153670194626e+03
    0.000000000000e+00 1.695007085800e-07 2.320013518332e+00 2.458691596985e-07
    9.783536026403e-01 3.050937500000e+02-1.411861180611e+00-7.830683322249e-09
    1.628639267934e-10 1.000000000000e+00 2.097000000000e+03 0.000000000000e+00
    2.400000000000e+00 0.000000000000e+00-1.117587089539e-08 5.900000000000e+01
   -7.200000000000e+03 4.000000000000e+00
23 20  3 15  0  0  0.0-1.296638511121e-04 2.728484105319e-12 0.000000000000e+00
    1.900000000000e+01-2.156250000000e+01 5.031995317089e-09 1.868415694350e+00
   -1.326203346252e-06 1.359576825052e-02 8.394941687584e-06 5.153645809174e+03
    0.000000000000e+00-2.402812242508e-07 1.096658237017e-01-2.477318048477e-07
    9.438936675885e-01 2.124687500000e+02-2.185938128206e+00-8.257843972348e-09
   -2.810831368123e-10 1.000000000000e+00 2.097000000000e+03 0.000000000000e+00
    2.400000000000e+00 6.300000000000e+01-2.002343535423e-08 1.900000000000e+01
   -7.200000000000e+03 4.000000000000e+00
18 20  3 15  0  0  0.0 3.259629011154e-09 0.000000000000e+00 0.000000000000e+00
    1.400000000000e+01-4.378125000000e+01 4.400540443030e-09 1.586072023752e+00
   -2.160668373108e-06 4.803673364222e-04 1.008994877338e-05 5.154358026505e+03
    0.000000000000e+00 2.421438694000e-08-1.936527684037e+00-9.313225746155e-09
    9.626198967540e-01 1.842812500000e+02 3.044458809358e+00-8.009976504816e-09
    1.600066649198e-10 1.000000000000e+00 2.097000000000e+03 0.000000000000e+00
    3.400000000000e+00 6.300000000000e+01-4.656612873077e-09 1.400000000000e+01
   -7.200000000000e+03 4.000000000000e+00
 4 20  3 15  0  0  0.0-6.231712177396e-05-5.343281372916e-12 0.000000000000e+00
    2.350000000000e+02-1.390625000000e+01 4.647336437359e-09 2.387678367108e+00
   -7.320195436478e-07 6.017698906362e-04 8.476898074150e-06 5.153706802368e+03
    0.000000000000e+00 3.725290298462e-09 1.648812615664e-01-3.725290298462e-08
    9.603735567849e-01 2.162187500000e+02-2.683258324457e+00-8.048192382375e-09
   -2.767972440020e-10 1.000000000000e+00 2.097000000000e+03 0.000000000000e+00
    2.400000000000e+00 0.000000000000e+00-4.190951585770e-09 1.003000000000e+03
   -7.080000000000e+03 4.000000000000e+00
22 20  3 14 23 59 44.0-7.854476571083e-04 0.000000000000e+00 0.000000000000e+00
    2.100000000000e+01-1.087500000000e+01 5.395581890500e-09 2.421011862553e+00
   -5.569308996201e-07 7.174799451604e-03 6.824731826782e-06 5.153546638489e+03
    6.047840000000e+05 1.285225152969e-07-8.768389990181e-01-1.117587089539e-08
    9.298702914129e-01 2.280625000000e+02-1.208899055475e+00-8.358919611125e-09
    1.621496113250e-10 1.000000000000e+00 2.096000000000e+03 0.000000000000e+00
    2.400000000000e+00 0.000000000000e+00-1.816079020500e-08 2.100000000000e+01
    5.992200000000e+05 4.000000000000e+00
25 20  3 14 23 59 44.0-9.001232683659e-06 1.932676241267e-12 0.000000000000e+00
    1.500000000000e+01 6.334375000000e+01 4.729482716225e-09-4.899923210955e-01
    3.479421138763e-06 9.220970561728e-03 4.192814230919e-06 5.153578609467e+03
    6.047840000000e+05 8.195638656616e-08 2.349759976683e+00 1.080334186554e-07
    9.663790856593e-01 3.063437500000e+02 9.084646005114e-01-8.470709981929e-09
    1.546492989069e-10 1.000000000000e+00 2.096000000000e+03 0.000000000000e+00
    2.400000000000e+00 0.000000000000e+00 5.587935447693e-09 1.500000000000e+01
    6.011100000000e+05 4.000000000000e+00
 4 20  3 15  1 29 36.0-6.234413012862e-05-5.343281372916e-12 0.000000000000e+00
    2.360000000000e+02-1.431250000000e+01 4.628407077447e-09-3.111118519305e+00
   -7.618218660355e-07 6.021539447829e-04 8.642673492432e-06 5.153706024170e+03
    5.376000000000e+03 5.587935447693e-08 1.648381654627e-01 1.862645149231e-09
    9.603722767316e-01 2.131250000000e+02-2.683525996041e+00-7.997118826385e-09
   -2.860833450911e-10 1.000000000000e+00 2.097000000000e+03 0.000000000000e+00
    2.400000000000e+00 0.000000000000e+00-4.190951585770e-09 1.004000000000e+03
   -1.740000000000e+03 4.000000000000e+00
